[{"OBJECT_NAME":"STARLINK-34081","OBJECT_ID":"2025-102Y","EPOCH":"2026-03-09T22:00:01.999584","MEAN_MOTION":14.98343703,"ECCENTRICITY":0.00035553,"INCLINATION":70,"RA_OF_ASC_NODE":114.0075,"ARG_OF_PERICENTER":266.7262,"MEAN_ANOMALY":72.8225,"EPHEMERIS_TYPE":0,"CLASSIFICATION_TYPE":"U","NORAD_CAT_ID":64044,"ELEMENT_SET_NO":999,"REV_AT_EPOCH":576,"BSTAR":0.0026762072,"MEAN_MOTION_DOT":0.00031998,"MEAN_MOTION_DDOT":0},{"OBJECT_NAME":"TIROS 6","OBJECT_ID":"1962-047A","EPOCH":"2026-03-09T22:32:46.825440","MEAN_MOTION":14.95739722,"ECCENTRICITY":0.00128175,"INCLINATION":58.3026,"RA_OF_ASC_NODE":287.9356,"ARG_OF_PERICENTER":61.4296,"MEAN_ANOMALY":298.8041,"EPHEMERIS_TYPE":0,"CLASSIFICATION_TYPE":"U","NORAD_CAT_ID":397,"ELEMENT_SET_NO":999,"REV_AT_EPOCH":39747,"BSTAR":0.00017529326,"MEAN_MOTION_DOT":1.739e-5,"MEAN_MOTION_DDOT":0}]
